IRIDIUM 26              
1 24903U 97043A   25293.57951765  .00000796  00000+0  26087-3 0  9994
2 24903  86.3955  57.8964 0002185  87.4565 272.6883 14.37258917474756
IRIDIUM 22              
1 24907U 97043E   25293.61337752  .00000757  00000+0  25382-3 0  9991
2 24907  86.3951  61.5307 0001996  89.3356 270.8070 14.36059735474773
DUMMY MASS 1            
1 24925U 97048A   25293.64859619  .00000905  00000+0  97674-4 0  9999
2 24925  86.3312  77.2722 0008777  68.8933 291.3229 14.87106433523779
DUMMY MASS 2            
1 24926U 97048B   25293.42977786  .00000928  00000+0  10082-3 0  9994
2 24926  86.3309  79.0054 0009687  77.9990 282.2321 14.86857283523518
IRIDIUM 29              
1 24944U 97051A   25293.59117253  .00000885  00000+0  29455-3 0  9997
2 24944  86.3905  91.2631 0001924  93.5297 266.6120 14.36584048471276
IRIDIUM 33              
1 24946U 97051C   25293.43268798  .00000691  00000+0  23607-3 0  9991
2 24946  86.3822  90.6011 0009083  41.1524 319.0355 14.34977370470709
IRIDIUM 28              
1 24948U 97051E   25293.48550535  .00000843  00000+0  27534-3 0  9993
2 24948  86.3913  88.7496 0002430  79.0934 281.0537 14.37489672471843
IRIDIUM 36              
1 24967U 97056C   25293.56834742  .00000724  00000+0  23448-3 0  9991
2 24967  86.3927 120.3490 0002064  81.0554 279.0877 14.37710915470233
